GLOBALSTAR M045         
1 25676U 99019A   25362.72359535 -.00000106  00000+0 -10872-3 0  9990
2 25676  51.9966 110.7935 0000779 135.9636  16.2124 12.27070370217270
GLOBALSTAR M019         
1 25677U 99019B   25362.84488921  .00000023  00000+0  11799-2 0  9990
2 25677  51.9872 254.5166 0001965  24.7454  50.9545 12.13880719208780
GLOBALSTAR M044         
1 25678U 99019C   25362.84593778 -.00000019  00000+0  89643-3 0  9998
2 25678  51.9944 230.2245 0007142  56.8035  25.7871 11.90263414194501
GLOBALSTAR M042         
1 25679U 99019D   25362.80749799 -.00000069  00000+0  21418-3 0  9992
2 25679  51.9990 221.5323 0003136   3.5978  77.6275 12.22095368209055
GLOBALSTAR M025         
1 25770U 99031A   25362.50063064 -.00000066  00000+0  61029-4 0  9999
2 25770  51.9838  69.1290 0002757 113.9693 258.7511 11.22559433503537
GLOBALSTAR M049         
1 25771U 99031B   25362.58265288 -.00000008  00000+0  20032-2 0  9993
2 25771  51.9866 113.4697 0002376   2.3926 357.6882 11.12123407139059
GLOBALSTAR M047         
1 25772U 99031C   25362.51407805 -.00000073  00000+0 -85649-4 0  9990
2 25772  51.9838  92.0289 0016166 233.6840 126.2473 11.31931749493117
GLOBALSTAR M052         
1 25773U 99031D   25362.33495860 -.00000071  00000+0 -18393-3 0  9998
2 25773  51.9827 219.9781 0003462 114.3581  57.1920 11.15063207500165
